NORAD_CAT_ID,OBJECT_NAME,OBJECT_TYPE,EPOCH,MEAN_MOTION,ECCENTRICITY,INCLINATION,RA_OF_ASC_NODE,ARG_OF_PERICENTER,MEAN_ANOMALY,BSTAR,MEAN_MOTION_DOT,MEAN_MOTION_DDOT,TLE_LINE0,TLE_LINE1,TLE_LINE2,SEMIMAJOR_AXIS,PERIOD,APOGEE,PERIGEE,DECAYED
52631.0,STARLINK-3794,PAYLOAD,2022-09-28 01:56:06,15.0884154,0.0001475,53.2183,159.231,59.0893,301.0244,9.5103e-05,1.226e-05,0.0,0 STARLINK-3794,1 52631U 22052AK  22271.08062950  .00001226  00000-0  95103-4 0  9995,2 52631  53.2183 159.2310 0001475  59.0893 301.0244 15.08841540 20993,6917.876,95.437,540.761,538.72,0.0
52631.0,STARLINK-3794,PAYLOAD,2022-09-28 16:14:35,15.08839211,0.0001817,53.2189,156.5554,51.7095,308.4061,-1.2956e-05,-4.94e-06,0.0,0 STARLINK-3794,1 52631U 22052AK  22271.67679500 -.00000494  00000-0 -12956-4 0  9998,2 52631  53.2189 156.5554 0001817  51.7095 308.4061 15.08839211 21454,6917.8830000000025,95.438,541.005,538.491,0.0
52631.0,STARLINK-3794,PAYLOAD,2022-09-28 21:00:44,15.08839044,0.0001694,53.2186,155.66299999999995,53.2574,306.8573,-1.4836e-05,-5.24e-06,0.0,0 STARLINK-3794,1 52631U 22052AK  22271.87551467 -.00000524  00000-0 -14836-4 0  9994,2 52631  53.2186 155.6630 0001694  53.2574 306.8573 15.08839044 21115,6917.8830000000025,95.438,540.92,538.576,0.0
52631.0,STARLINK-3794,PAYLOAD,2022-09-29 01:46:53,15.08840481,0.0002029,53.2189,154.7742,46.2265,313.8895,-3.9089e-05,-9.1e-06,0.0,0 STARLINK-3794,1 52631U 22052AK  22272.07423520 -.00000910  00000-0 -39089-4 0  9991,2 52631  53.2189 154.7742 0002029  46.2265 313.8895 15.08840481 21149,6917.879,95.438,541.148,538.34,0.0
52631.0,STARLINK-3794,PAYLOAD,2022-09-29 16:05:23,15.08822028,0.000144,53.2182,152.0929,62.9991,297.1148,-7.0348e-05,-1.407e-05,0.0,0 STARLINK-3794,1 52631U 22052AK  22272.67041042 -.00001407  00000-0 -70348-4 0  9997,2 52631  53.2182 152.0929 0001440  62.9991 297.1148 15.08822028 21600,6917.935,95.439,540.797,538.804,0.0
52631.0,STARLINK-3794,PAYLOAD,2022-09-29 20:51:32,15.08824965,0.0001564,53.2179,151.2021,58.9324,301.1822,-5.2518e-05,-1.123e-05,0.0,0 STARLINK-3794,1 52631U 22052AK  22272.86913037 -.00001123  00000-0 -52518-4 0  9994,2 52631  53.2179 151.2021 0001564  58.9324 301.1822 15.08824965 21261,6917.926,95.439,540.873,538.7090000000002,0.0
52631.0,STARLINK-3794,PAYLOAD,2022-09-30 11:10:00,15.08831289,0.0001601,53.2181,148.5271,52.2912,307.8225,5.4677e-05,5.82e-06,0.0,0 STARLINK-3794,1 52631U 22052AK  22273.46528912  .00000582  00000-0  54677-4 0  9999,2 52631  53.2181 148.5271 0001601  52.2912 307.8225 15.08831289 21359,6917.906999999997,95.438,540.88,538.664,0.0
52631.0,STARLINK-3794,PAYLOAD,2022-09-30 20:42:19,15.08842575,0.0001567,53.2182,146.7426,54.4151,305.6987,8.829299999999999e-05,1.118e-05,0.0,0 STARLINK-3794,1 52631U 22052AK  22273.86272289  .00001118  00000-0  88293-4 0  9993,2 52631  53.2182 146.7426 0001567  54.4151 305.6987 15.08842575 21410,6917.873000000001,95.437,540.822,538.653,0.0
52631.0,STARLINK-3794,PAYLOAD,2022-10-01 01:28:28,15.08853208,0.0001686,53.2183,145.8508,62.0737,298.0425,0.00010598,1.4e-05,0.0,0 STARLINK-3794,1 52631U 22052AK  22274.06143612  .00001400  00000-0  10598-3 0  9999,2 52631  53.2183 145.8508 0001686  62.0737 298.0425 15.08853208 21810,6917.84,95.437,540.871,538.539,0.0
52631.0,STARLINK-3794,PAYLOAD,2022-10-01 20:33:05,15.08845238,0.0001438,53.2171,142.2831,52.6043,307.508,0.00025422,3.761e-05,0.0,0 STARLINK-3794,1 52631U 22052AK  22274.85631833  .00003761  00000-0  25422-3 0  9997,2 52631  53.2171 142.2831 0001438  52.6043 307.5080 15.08845238 21566,6917.864000000001,95.437,540.724,538.735,0.0
52631.0,STARLINK-3794,PAYLOAD,2022-10-01 22:08:29,15.088385999999998,0.0001508,53.2182,141.9849,53.3685,306.7446,0.00017574,2.51e-05,0.0,0 STARLINK-3794,1 52631U 22052AK  22274.92256428  .00002510  00000-0  17574-3 0  9998,2 52631  53.2182 141.9849 0001508  53.3685 306.7446 15.08838600 21945,6917.885,95.438,540.793,538.706,0.0
52631.0,STARLINK-3794,PAYLOAD,2022-10-02 10:51:34,15.08844997,0.0001458,53.2179,139.6058,57.2405,302.8728,0.00014185,1.971e-05,0.0,0 STARLINK-3794,1 52631U 22052AK  22275.45247986  .00001971  00000-0  14185-3 0  9991,2 52631  53.2179 139.6058 0001458  57.2405 302.8728 15.08844997 21658,6917.865,95.437,540.739,538.721,0.0
52631.0,STARLINK-3794,PAYLOAD,2022-10-02 20:23:53,15.08842768,0.0001473,53.218,137.8224,58.4179,301.6957,3.346e-05,2.45e-06,0.0,0 STARLINK-3794,1 52631U 22052AK  22275.84992372  .00000245  00000-0  33460-4 0  9991,2 52631  53.2180 137.8224 0001473  58.4179 301.6957 15.08842768 21715,6917.871999999999,95.437,540.756,538.7180000000002,0.0
52631.0,STARLINK-3794,PAYLOAD,2022-10-03 10:42:20,15.08854502,0.0001561,53.2175,135.14600000000002,53.8781,306.2355,4.435899999999999e-05,4.18e-06,0.0,0 STARLINK-3794,1 52631U 22052AK  22276.44607054  .00000418  00000-0  44359-4 0  9999,2 52631  53.2175 135.1460 0001561  53.8781 306.2355 15.08854502 22171,6917.8359999999975,95.437,540.781,538.621,0.0
52631.0,STARLINK-3794,PAYLOAD,2022-10-03 13:53:06,15.08856378,0.0001647,53.2175,134.5513,52.9768,307.1375,2.1797e-05,5.9e-07,0.0,0 STARLINK-3794,1 52631U 22052AK  22276.57854809  .00000059  00000-0  21797-4 0  9997,2 52631  53.2175 134.5513 0001647  52.9768 307.1375 15.08856378 21829,6917.83,95.437,540.835,538.556,0.0
52631.0,STARLINK-3794,PAYLOAD,2022-10-03 17:03:53,15.08827972,0.0001641,53.2175,133.9566,58.2501,301.865,0.00060909,9.416e-05,0.0,0 STARLINK-3794,1 52631U 22052AK  22276.71104112  .00009416  00000-0  60909-3 0  9991,2 52631  53.2175 133.9566 0001641  58.2501 301.8650 15.08827972 22217,6917.917,95.438,540.9169999999998,538.6469999999998,0.0
52631.0,STARLINK-3794,PAYLOAD,2022-10-03 20:14:39,15.08847839,0.000158,53.2173,133.3621,55.8531,304.2611,0.00012563,1.712e-05,0.0,0 STARLINK-3794,1 52631U 22052AK  22276.84351187  .00001712  00000-0  12563-3 0  9995,2 52631  53.2173 133.3621 0001580  55.8531 304.2611 15.08847839 21867,6917.856,95.437,540.814,538.628,0.0
52631.0,STARLINK-3794,PAYLOAD,2022-10-03 23:25:25,15.08843869,0.0001609,53.2171,132.7678,56.298,303.8166,5.7683e-05,6.3e-06,0.0,0 STARLINK-3794,1 52631U 22052AK  22276.97599358  .00000630  00000-0  57683-4 0  9994,2 52631  53.2171 132.7678 0001609  56.2980 303.8166 15.08843869 22258,6917.869000000002,95.437,540.847,538.62,0.0
52631.0,STARLINK-3794,PAYLOAD,2022-10-04 07:22:21,15.08840415,0.0001547,53.2177,131.2809,59.5277,300.5868,9.6076e-05,1.241e-05,0.0,0 STARLINK-3794,1 52631U 22052AK  22277.30719736  .00001241  00000-0  96076-4 0  9994,2 52631  53.2177 131.2809 0001547  59.5277 300.5868 15.08840415 21931,6917.879,95.438,540.814,538.674,0.0
52631.0,STARLINK-3794,PAYLOAD,2022-10-04 16:54:40,15.08840956,0.0001575999999999,53.2178,129.4961,58.3923,301.7223,0.00011049,1.471e-05,0.0,0 STARLINK-3794,1 52631U 22052AK  22277.70463574  .00001471  00000-0  11049-3 0  9995,2 52631  53.2178 129.4961 0001576  58.3923 301.7223 15.08840956 21991,6917.877,95.437,540.8330000000002,538.6519999999998,0.0
52631.0,STARLINK-3794,PAYLOAD,2022-10-04 23:16:13,15.08835141,0.000167,53.2186,128.3069,60.6827,299.4332,2.7861e-05,1.55e-06,0.0,0 STARLINK-3794,1 52631U 22052AK  22277.96960317  .00000155  00000-0  27861-4 0  9998,2 52631  53.2186 128.3069 0001670  60.6827 299.4332 15.08835141 22402,6917.895,95.438,540.9159999999998,538.605,0.0
52631.0,STARLINK-3794,PAYLOAD,2022-10-05 08:48:32,15.08833972,0.000166,53.218,126.5222,59.6227,300.4929,-6.5292e-05,-1.327e-05,0.0,0 STARLINK-3794,1 52631U 22052AK  22278.36704694 -.00001327  00000-0 -65292-4 0  9991,2 52631  53.2180 126.5222 0001660  59.6227 300.4929 15.08833972 22098,6917.899,95.438,540.9119999999998,538.615,0.0
52631.0,STARLINK-3794,PAYLOAD,2022-10-05 19:56:14,15.08839781,0.0001729,53.2179,124.441,60.0448,300.0716,6.8991e-05,8.1e-06,0.0,0 STARLINK-3794,1 52631U 22052AK  22278.83072204  .00000810  00000-0  68991-4 0  9991,2 52631  53.2179 124.4410 0001729  60.0448 300.0716 15.08839781 22161,6917.880999999999,95.438,540.942,538.55,0.0
52631.0,STARLINK-3794,PAYLOAD,2022-10-05 23:07:00,15.08841674,0.0001704,53.2174,123.846,60.712,299.4042,0.00011998,1.622e-05,0.0,0 STARLINK-3794,1 52631U 22052AK  22278.96319996  .00001622  00000-0  11998-3 0  9993,2 52631  53.2174 123.8460 0001704  60.7120 299.4042 15.08841674 22551,6917.875,95.437,540.919,538.561,0.0
52631.0,STARLINK-3794,PAYLOAD,2022-10-06 07:03:56,15.0883391,0.0001708,53.2177,122.3571,65.242,294.875,8.920899999999999e-05,1.132e-05,0.0,0 STARLINK-3794,1 52631U 22052AK  22279.29440580  .00001132  00000-0  89209-4 0  9991,2 52631  53.2177 122.3571 0001708  65.2420 294.8750 15.08833910 22232,6917.899,95.438,540.946,538.582,0.0
52631.0,STARLINK-3794,PAYLOAD,2022-10-06 19:47:01,15.08841548,0.0001655,53.2183,119.9774,64.5337,295.5827,0.0001909,2.752e-05,0.0,0 STARLINK-3794,1 52631U 22052AK  22279.82432347  .00002752  00000-0  19090-3 0  9991,2 52631  53.2183 119.9774 0001655  64.5337 295.5827 15.08841548 22314,6917.876,95.437,540.886,538.596,0.0
52631.0,STARLINK-3794,PAYLOAD,2022-10-06 22:57:47,15.0884105,0.0001693,53.2182,119.3832,63.5469,296.5697,0.00031376,4.709e-05,0.0,0 STARLINK-3794,1 52631U 22052AK  22279.95680476  .00004709  00000-0  31376-3 0  9998,2 52631  53.2182 119.3832 0001693  63.5469 296.5697 15.08841050 22706,6917.877,95.437,540.913,538.571,0.0
52631.0,STARLINK-3794,PAYLOAD,2022-10-07 11:40:53,15.08842866,0.0001827,53.2164,117.0066,60.5526,299.5648,0.00019241,2.776e-05,0.0,0 STARLINK-3794,1 52631U 22052AK  22280.48672467  .00002776  00000-0  19241-3 0  9998,2 52631  53.2164 117.0066 0001827  60.5526 299.5648 15.08842866 22413,6917.871999999999,95.437,541.001,538.4730000000002,0.0
52631.0,STARLINK-3794,PAYLOAD,2022-10-07 19:37:48,15.08837309,0.0001022999999999,53.2201,115.5156,80.188,279.9227,8.721899999999999e-05,1.1e-05,0.0,0 STARLINK-3794,1 52631U 22052AK  22280.81792481  .00001100  00000-0  87219-4 0  9995,2 52631  53.2201 115.5156 0001023  80.1880 279.9227 15.08837309 22463,6917.889,95.438,540.461,539.0459999999998,0.0
